[{"OBJECT_NAME":"YAM-7","OBJECT_ID":"2024-149AN","EPOCH":"2026-03-09T17:13:55.117920","MEAN_MOTION":15.30304554,"ECCENTRICITY":0.00019733,"INCLINATION":97.3828,"RA_OF_ASC_NODE":149.4631,"ARG_OF_PERICENTER":296.5121,"MEAN_ANOMALY":63.5918,"EPHEMERIS_TYPE":0,"CLASSIFICATION_TYPE":"U","NORAD_CAT_ID":60504,"ELEMENT_SET_NO":999,"REV_AT_EPOCH":8683,"BSTAR":0.00030984439,"MEAN_MOTION_DOT":9.009e-5,"MEAN_MOTION_DDOT":0},{"OBJECT_NAME":"STARLINK-32940","OBJECT_ID":"2025-075W","EPOCH":"2026-03-09T22:07:39.508320","MEAN_MOTION":15.27610947,"ECCENTRICITY":0.00017829,"INCLINATION":43.0005,"RA_OF_ASC_NODE":269.2315,"ARG_OF_PERICENTER":288.3145,"MEAN_ANOMALY":71.7513,"EPHEMERIS_TYPE":0,"CLASSIFICATION_TYPE":"U","NORAD_CAT_ID":63568,"ELEMENT_SET_NO":999,"REV_AT_EPOCH":5196,"BSTAR":0.0010463237,"MEAN_MOTION_DOT":0.0002867,"MEAN_MOTION_DDOT":0}]
